{"type":"FeatureCollection","features":[{"type":"Feature","geometry":{"type":"Polygon","coordinates":[[[37.4461,55.79449],[37.44763,55.80262],[37.44614,55.80799],[37.4465,55.81008],[37.44901,55.81408],[37.45233,55.81188],[37.45748,55.81107],[37.46887,55.81173],[37.47859,55.81484],[37.48417,55.81544],[37.48684,55.81535],[37.4879,55.8121],[37.50258,55.79498],[37.50389,55.79112],[37.5035,55.79165],[37.50127,55.78966],[37.49907,55.78885],[37.48956,55.78765],[37.47899,55.78894],[37.47526,55.78866],[37.45458,55.79181],[37.45465,55.79442],[37.44901,55.79446],[37.4461,55.79449]]]},"properties":{"district":"Щукино","source_name":"Щукино"}},{"type":"Feature","geometry":{"type":"Polygon","coordinates":[[[37.45572,55.63705],[37.48247,55.64946],[37.48676,55.64672],[37.51548,55.63557],[37.52049,55.6343],[37.5171,55.62963],[37.50461,55.61882],[37.49998,55.61549],[37.4906,55.61045],[37.48833,55.60827],[37.48784,55.60839],[37.48916,55.61072],[37.4889,55.61328],[37.46078,55.63706],[37.456,55.63688],[37.45572,55.63705]]]},"properties":{"district":"Теплый Стан","source_name":"Тёплый Стан"}},{"type":"Feature","geometry":{"type":"Polygon","coordinates":[[[37.30607,55.61895],[37.31454,55.62335],[37.31392,55.62137],[37.31517,55.6206],[37.31821,55.62176],[37.3196,55.62059],[37.32361,55.62233],[37.32551,55.62087],[37.32399,55.61894],[37.32505,55.61763],[37.3385,55.62162],[37.34671,55.62322],[37.34745,55.62745],[37.34398,55.6298],[37.33991,55.6302],[37.35064,55.63624],[37.35825,55.63476],[37.35836,55.63408],[37.36015,55.63327],[37.35983,55.63139],[37.36238,55.62979],[37.36611,55.63055],[37.37068,55.62538],[37.3764,55.62323],[37.37757,55.62394],[37.37564,55.62494],[37.38712,55.63226],[37.3886,55.6317],[37.3877,55.6285],[37.39372,55.62783],[37.39465,55.62887],[37.39791,55.62878],[37.3982,55.63047],[37.41007,55.62949],[37.41228,55.6359],[37.41509,55.6357],[37.41517,55.63833],[37.41652,55.63825],[37.41739,55.64252],[37.41706,55.64807],[37.41549,55.64775],[37.41361,55.65116],[37.41501,55.65179],[37.41474,55.65223],[37.41745,55.65302],[37.41641,55.6558],[37.41459,55.65567],[37.41322,55.65767],[37.4152,55.65779],[37.4152,55.66016],[37.42901,55.66109],[37.43331,55.65991],[37.44332,55.65203],[37.45685,55.64017],[37.45543,55.63722],[37.456,55.63688],[37.44709,55.63301],[37.44104,55.63126],[37.44018,55.63042],[37.43956,55.62731],[37.44053,55.6243],[37.44449,55.62283],[37.4461,55.62063],[37.44591,55.61939],[37.44402,55.61892],[37.44274,55.61684],[37.44292,55.6158],[37.44034,55.61475],[37.43694,55.61139],[37.43287,55.6092],[37.40851,55.60975],[37.40758,55.60826],[37.40863,55.60605],[37.41232,55.60563],[37.40918,55.60279],[37.40154,55.59865],[37.4009,55.58924],[37.39068,55.58112],[37.38258,55.57862],[37.37944,55.5769],[37.37667,55.57624],[37.37152,55.57796],[37.36024,55.58211],[37.35682,55.58461],[37.35572,55.58313],[37.35343,55.58217],[37.35,55.58464],[37.34829,55.58387],[37.34577,55.58615],[37.34272,55.58531],[37.34383,55.58323],[37.34242,55.58273],[37.3428,55.58215],[37.33996,55.58122],[37.3402,55.58381],[37.33938,55.58548],[37.33828,55.58644],[37.33503,55.58686],[37.33299,55.58838],[37.33179,55.58837],[37.33158,55.58952],[37.32907,55.5876],[37.33209,55.58474],[37.32325,55.58416],[37.31978,55.58756],[37.31413,55.58751],[37.30918,55.58956],[37.3088,55.59142],[37.3133,55.59325],[37.31577,55.59545],[37.3194,55.59636],[37.31986,55.5974],[37.31871,55.59927],[37.31595,55.59856],[37.31375,55.5992],[37.31272,55.60014],[37.31303,55.60098],[37.30968,55.60119],[37.31052,55.60387],[37.30738,55.60454],[37.30775,55.60544],[37.30706,55.6057],[37.30828,55.60747],[37.30985,55.60867],[37.31139,55.60798],[37.31432,55.61037],[37.31401,55.61158],[37.31548,55.61297],[37.31347,55.61376],[37.31268,55.61493],[37.31086,55.61465],[37.30728,55.6164],[37.30809,55.61725],[37.30607,55.61895]]]},"properties":{"district":"Московский","source_name":"Московский"}},{"type":"Feature","geometry":{"type":"Polygon","coordinates":[[[37.46249,55.88272],[37.4737,55.8853],[37.51437,55.86761],[37.51017,55.86437],[37.50542,55.86239],[37.51119,55.85774],[37.49685,55.85254],[37.48914,55.85914],[37.48545,55.85822],[37.4817,55.86127],[37.47647,55.86606],[37.47913,55.86673],[37.46657,55.87949],[37.46253,55.88186],[37.46249,55.88272]]]},"properties":{"district":"Ховрино","source_name":"Ховрино"}},{"type":"Feature","geometry":{"type":"Polygon","coordinates":[[[37.36726,55.79036],[37.36784,55.79136],[37.37448,55.79236],[37.38465,55.80324],[37.38679,55.80695],[37.38598,55.80731],[37.38625,55.80875],[37.38505,55.80931],[37.38789,55.80976],[37.3937,55.82917],[37.40262,55.82719],[37.40712,55.82557],[37.41262,55.82128],[37.41446,55.81914],[37.4141,55.81639],[37.41484,55.81505],[37.41987,55.81152],[37.43017,55.80884],[37.44124,55.80874],[37.44643,55.80655],[37.44763,55.80262],[37.4461,55.79449],[37.44489,55.79188],[37.4383,55.78808],[37.42952,55.78619],[37.42329,55.78726],[37.418,55.79154],[37.41272,55.79214],[37.41034,55.79143],[37.40313,55.78081],[37.40309,55.77909],[37.40408,55.77748],[37.40858,55.77576],[37.40012,55.77127],[37.39734,55.7711],[37.38677,55.77086],[37.38337,55.77168],[37.37108,55.7709],[37.37026,55.77136],[37.37026,55.77303],[37.36889,55.77304],[37.36897,55.77932],[37.36941,55.78484],[37.3706,55.78819],[37.36836,55.78997],[37.36726,55.79036]]]},"properties":{"district":"Строгино","source_name":"Строгино"}},{"type":"Feature","geometry":{"type":"Polygon","coordinates":[[[37.46446,55.84712],[37.47644,55.8502],[37.49266,55.85101],[37.51119,55.85774],[37.50542,55.86239],[37.51017,55.86437],[37.51437,55.86761],[37.54704,55.85352],[37.55518,55.84836],[37.52308,55.84104],[37.52231,55.84175],[37.51899,55.84136],[37.51751,55.84078],[37.51474,55.83792],[37.50491,55.83717],[37.49398,55.83934],[37.48138,55.83933],[37.47987,55.84134],[37.47259,55.84035],[37.47152,55.8424],[37.46538,55.84623],[37.46446,55.84712]]]},"properties":{"district":"Головинский","source_name":"Головинский"}},{"type":"Feature","geometry":{"type":"Polygon","coordinates":[[[37.53909,55.65574],[37.55516,55.67064],[37.54607,55.67323],[37.55556,55.68213],[37.56299,55.67789],[37.58563,55.6701],[37.564,55.64946],[37.55124,55.65132],[37.53927,55.65569],[37.53909,55.65574]]]},"properties":{"district":"Черемушки","source_name":"Черёмушки"}},{"type":"Feature","geometry":{"type":"Polygon","coordinates":[[[37.39444,55.8291],[37.39586,55.83364],[37.40542,55.83174],[37.40818,55.83334],[37.41393,55.83309],[37.41572,55.83377],[37.41599,55.83458],[37.41467,55.83523],[37.41591,55.83625],[37.42347,55.83743],[37.42617,55.83699],[37.4282,55.83447],[37.4363,55.83651],[37.45948,55.83509],[37.46547,55.83695],[37.46984,55.84138],[37.47035,55.84273],[37.47152,55.8424],[37.47251,55.84098],[37.47168,55.83779],[37.47898,55.83155],[37.47912,55.83075],[37.47442,55.82983],[37.4782,55.82661],[37.48716,55.82648],[37.49108,55.82727],[37.49335,55.82449],[37.49062,55.82312],[37.48791,55.82062],[37.48669,55.81792],[37.48684,55.81535],[37.47979,55.81511],[37.46887,55.81173],[37.45748,55.81107],[37.45233,55.81188],[37.44901,55.81408],[37.4465,55.81008],[37.44643,55.80655],[37.44124,55.80874],[37.43017,55.80884],[37.41987,55.81152],[37.41484,55.81505],[37.4141,55.81639],[37.41446,55.81914],[37.40712,55.82557],[37.39532,55.82902],[37.39444,55.8291]]]},"properties":{"district":"Покровское-Стрешнево","source_name":"Покровское-Стрешнево"}},{"type":"Feature","geometry":{"type":"Polygon","coordinates":[[[37.40309,55.77909],[37.40313,55.78081],[37.41034,55.79143],[37.41272,55.79214],[37.418,55.79154],[37.42329,55.78726],[37.42952,55.78619],[37.43965,55.78874],[37.44489,55.79188],[37.4461,55.79449],[37.45465,55.79442],[37.45458,55.79181],[37.46526,55.79054],[37.46872,55.78948],[37.48956,55.78765],[37.49907,55.78885],[37.50127,55.78966],[37.5035,55.79165],[37.50389,55.79112],[37.50705,55.77743],[37.52194,55.76151],[37.51393,55.75842],[37.50106,55.76437],[37.49205,55.76736],[37.48718,55.76819],[37.47942,55.76755],[37.47639,55.76451],[37.47673,55.75596],[37.47617,55.75229],[37.47416,55.7485],[37.4648,55.7429],[37.45532,55.7406],[37.44927,55.74113],[37.44446,55.74261],[37.43738,55.74642],[37.43635,55.74787],[37.43738,55.74969],[37.43922,55.75053],[37.45544,55.75478],[37.46343,55.76019],[37.46466,55.7633],[37.46399,55.76577],[37.45527,55.77418],[37.44883,55.77728],[37.43622,55.77441],[37.43075,55.77417],[37.40858,55.77576],[37.40408,55.77748],[37.40309,55.77909]]]},"properties":{"district":"Хорошево-Мневники","source_name":"Хорошёво-Мнёвники"}},{"type":"Feature","geometry":{"type":"Polygon","coordinates":[[[37.40216,55.69884],[37.40593,55.7005],[37.40446,55.70268],[37.41195,55.70671],[37.41202,55.70757],[37.4205,55.70455],[37.42128,55.70807],[37.43059,55.70416],[37.43337,55.70449],[37.43552,55.70574],[37.44451,55.70612],[37.44792,55.70702],[37.44873,55.7095],[37.45496,55.7091],[37.4547,55.70996],[37.46185,55.71117],[37.46391,55.71025],[37.46565,55.71102],[37.46551,55.71157],[37.46702,55.71142],[37.46787,55.71261],[37.46369,55.71383],[37.46694,55.71561],[37.46858,55.71482],[37.46802,55.71367],[37.47144,55.71382],[37.4707,55.71481],[37.47154,55.71548],[37.47059,55.71584],[37.47208,55.71699],[37.46928,55.71824],[37.4692,55.719],[37.47051,55.71938],[37.4722,55.71842],[37.47324,55.71992],[37.47676,55.72153],[37.48489,55.72065],[37.48663,55.71947],[37.48436,55.71792],[37.48578,55.71741],[37.48905,55.71842],[37.49251,55.7181],[37.49311,55.71893],[37.49263,55.72011],[37.49492,55.72012],[37.49309,55.71783],[37.49293,55.71349],[37.49069,55.70928],[37.48815,55.70737],[37.47716,55.70262],[37.46955,55.6982],[37.46632,55.69453],[37.47756,55.68593],[37.45881,55.67377],[37.44544,55.66887],[37.43932,55.66418],[37.43656,55.66286],[37.43227,55.66201],[37.41803,55.68055],[37.41545,55.68204],[37.41421,55.68203],[37.41516,55.68243],[37.41496,55.68527],[37.41217,55.69071],[37.40409,55.69741],[37.40216,55.69884]]]},"properties":{"district":"Очаково-Матвеевское","source_name":"Очаково-Матвеевское"}},{"type":"Feature","geometry":{"type":"Polygon","coordinates":[[[37.48247,55.64946],[37.50165,55.65852],[37.52414,55.67367],[37.52911,55.67139],[37.5312,55.66896],[37.53297,55.66823],[37.54094,55.66858],[37.54221,55.67156],[37.54459,55.67369],[37.55516,55.67064],[37.53909,55.65574],[37.52537,55.65731],[37.52276,55.65529],[37.52118,55.65605],[37.52003,55.65516],[37.52189,55.65464],[37.51343,55.6482],[37.50889,55.64994],[37.49851,55.64219],[37.4866,55.64679],[37.48266,55.64932],[37.48247,55.64946]]]},"properties":{"district":"Обручевский","source_name":"Обручевский"}},{"type":"Feature","geometry":{"type":"Polygon","coordinates":[[[37.46632,55.69453],[37.46955,55.6982],[37.47716,55.70262],[37.48815,55.70737],[37.49069,55.70928],[37.49293,55.71349],[37.49309,55.71783],[37.49774,55.7225],[37.51795,55.73116],[37.53259,55.73543],[37.53847,55.73621],[37.54287,55.73314],[37.54779,55.72807],[37.5449,55.72706],[37.54186,55.72404],[37.54108,55.72013],[37.54189,55.71759],[37.54333,55.71562],[37.54852,55.71226],[37.5529,55.71097],[37.55923,55.71028],[37.53657,55.69356],[37.51014,55.67884],[37.50864,55.68119],[37.50937,55.6828],[37.50702,55.68503],[37.50716,55.68685],[37.50421,55.68816],[37.50278,55.68763],[37.49872,55.68817],[37.49432,55.68663],[37.48867,55.68861],[37.487,55.68738],[37.4899,55.68382],[37.48629,55.6822],[37.48461,55.68306],[37.48138,55.68113],[37.47819,55.6854],[37.46759,55.69355],[37.46632,55.69453]]]},"properties":{"district":"Раменки","source_name":"Раменки"}},{"type":"Feature","geometry":{"type":"Polygon","coordinates":[[[37.47168,55.83779],[37.47259,55.84035],[37.47987,55.84134],[37.48138,55.83933],[37.49398,55.83934],[37.50491,55.83717],[37.50875,55.83314],[37.50778,55.83209],[37.51494,55.82779],[37.51439,55.8274],[37.51957,55.82119],[37.51788,55.81863],[37.5218,55.81755],[37.51997,55.81637],[37.5195,55.81517],[37.50808,55.81475],[37.48684,55.81535],[37.48669,55.81792],[37.48791,55.82062],[37.49062,55.82312],[37.49335,55.82449],[37.49108,55.82727],[37.48716,55.82648],[37.4782,55.82661],[37.47442,55.82983],[37.47912,55.83075],[37.47898,55.83155],[37.47218,55.83718],[37.47168,55.83779]]]},"properties":{"district":"Войковский","source_name":"Войковский"}},{"type":"Feature","geometry":{"type":"Polygon","coordinates":[[[37.4737,55.8853],[37.48232,55.88838],[37.4836,55.89065],[37.48485,55.8888],[37.48594,55.8884],[37.49286,55.89098],[37.49481,55.89281],[37.50614,55.88618],[37.51166,55.88932],[37.52634,55.87502],[37.53124,55.87173],[37.56025,55.85735],[37.56692,55.8495],[37.561,55.84962],[37.55518,55.84836],[37.54704,55.85352],[37.47453,55.88488],[37.4737,55.8853]]]},"properties":{"district":"Западное Дегунино","source_name":"Западное Дегунино"}},{"type":"Feature","geometry":{"type":"Polygon","coordinates":[[[37.47371,55.67887],[37.47439,55.68135],[37.47667,55.68342],[37.47609,55.68511],[37.47756,55.68593],[37.48138,55.68113],[37.48461,55.68306],[37.48629,55.6822],[37.4899,55.68382],[37.487,55.68738],[37.48867,55.68861],[37.49432,55.68663],[37.49872,55.68817],[37.50278,55.68763],[37.50421,55.68816],[37.50716,55.68685],[37.50702,55.68503],[37.50937,55.6828],[37.50864,55.68119],[37.51014,55.67884],[37.51166,55.67973],[37.52414,55.67367],[37.50654,55.66178],[37.50671,55.66293],[37.50563,55.66386],[37.50249,55.66508],[37.50026,55.6677],[37.49843,55.66871],[37.48463,55.67022],[37.47806,55.67744],[37.47382,55.6787],[37.47371,55.67887]]]},"properties":{"district":"Проспект Вернадского","source_name":"Проспект Вернадского"}},{"type":"Feature","geometry":{"type":"Polygon","coordinates":[[[37.48929,55.73301],[37.49854,55.7346],[37.50579,55.73683],[37.5084,55.73819],[37.51487,55.74445],[37.52252,55.74721],[37.52797,55.74461],[37.53673,55.74464],[37.54355,55.74652],[37.55454,55.75144],[37.56018,55.75308],[37.56788,55.75336],[37.57303,55.75147],[37.57449,55.74886],[37.57389,55.74471],[37.56833,55.73855],[37.56363,55.7351],[37.54779,55.72807],[37.54287,55.73314],[37.53847,55.73621],[37.53132,55.73513],[37.51795,55.73116],[37.49857,55.72285],[37.49433,55.72749],[37.48929,55.73301]]]},"properties":{"district":"Дорогомилово","source_name":"Дорогомилово"}},{"type":"Feature","geometry":{"type":"Polygon","coordinates":[[[37.49851,55.64219],[37.50889,55.64994],[37.51325,55.64809],[37.52189,55.65464],[37.52003,55.65516],[37.52118,55.65605],[37.52276,55.65529],[37.52537,55.65731],[37.53841,55.65588],[37.55124,55.65132],[37.564,55.64946],[37.55972,55.64449],[37.54949,55.64095],[37.54533,55.63875],[37.54038,55.63149],[37.54056,55.62864],[37.52443,55.62363],[37.51265,55.62578],[37.5171,55.62963],[37.52049,55.6343],[37.51548,55.63557],[37.49879,55.64208],[37.49851,55.64219]]]},"properties":{"district":"Коньково","source_name":"Коньково"}},{"type":"Feature","geometry":{"type":"Polygon","coordinates":[[[37.50389,55.79112],[37.51835,55.79349],[37.51888,55.79449],[37.51796,55.79473],[37.52044,55.80374],[37.53119,55.80071],[37.55117,55.79191],[37.54084,55.78496],[37.54199,55.78346],[37.54409,55.78358],[37.54537,55.78091],[37.55075,55.77749],[37.55503,55.77612],[37.55169,55.77413],[37.55192,55.77341],[37.54443,55.77299],[37.53896,55.77113],[37.53663,55.76907],[37.53606,55.7661],[37.53473,55.7662],[37.53212,55.76337],[37.52429,55.75985],[37.52256,55.76169],[37.52194,55.76151],[37.50744,55.77682],[37.50404,55.79045],[37.50389,55.79112]]]},"properties":{"district":"Хорошевский","source_name":"Хорошёвский"}},{"type":"Feature","geometry":{"type":"Polygon","coordinates":[[[37.51101,55.80608],[37.5195,55.81517],[37.5301,55.81561],[37.53397,55.81514],[37.54946,55.80708],[37.54846,55.80664],[37.56381,55.79361],[37.56959,55.79143],[37.57454,55.79166],[37.56574,55.78548],[37.53119,55.80071],[37.51361,55.80545],[37.51101,55.80608]]]},"properties":{"district":"Аэропорт","source_name":"Аэропорт"}},{"type":"Feature","geometry":{"type":"Polygon","coordinates":[[[37.51393,55.75842],[37.52256,55.76169],[37.52429,55.75985],[37.53182,55.76322],[37.53473,55.7662],[37.53606,55.7661],[37.53663,55.76907],[37.53792,55.77037],[37.5434,55.77279],[37.57523,55.77552],[37.57711,55.77316],[37.58334,55.7753],[37.59659,55.7676],[37.59522,55.76686],[37.59899,55.76429],[37.60062,55.76488],[37.60424,55.7632],[37.60371,55.76264],[37.60621,55.76127],[37.60564,55.76089],[37.60898,55.75907],[37.60967,55.75827],[37.60704,55.75625],[37.60602,55.75403],[37.59943,55.75404],[37.58446,55.75811],[37.58386,55.7552],[37.57681,55.75521],[37.57396,55.75256],[37.57206,55.75202],[37.56788,55.75336],[37.56018,55.75308],[37.55454,55.75144],[37.54037,55.74546],[37.5324,55.7444],[37.52797,55.74461],[37.52364,55.74633],[37.52023,55.75002],[37.5163,55.75683],[37.51454,55.75809],[37.51393,55.75842]]]},"properties":{"district":"Пресненский","source_name":"Пресненский"}},{"type":"Feature","geometry":{"type":"Polygon","coordinates":[[[37.51948,55.94176],[37.53417,55.94385],[37.54318,55.9439],[37.53743,55.95288],[37.54662,55.95551],[37.5483,55.9558],[37.55052,55.95263],[37.55065,55.95127],[37.55197,55.9513],[37.55177,55.95348],[37.55245,55.95374],[37.5551,55.954],[37.55506,55.95162],[37.5742,55.9577],[37.57537,55.95731],[37.57485,55.95635],[37.57854,55.95577],[37.58081,55.95416],[37.57925,55.95385],[37.58016,55.9522],[37.57953,55.94964],[37.56259,55.95125],[37.56456,55.94133],[37.57016,55.94132],[37.56995,55.93669],[37.56627,55.93672],[37.56567,55.93359],[37.56071,55.93252],[37.56096,55.92803],[37.55565,55.90912],[37.53686,55.90706],[37.53719,55.90759],[37.52025,55.94033],[37.51948,55.94176]]]},"properties":{"district":"Северный","source_name":"Северный"}},{"type":"Feature","geometry":{"type":"Polygon","coordinates":[[[37.53005,55.68993],[37.53657,55.69356],[37.55923,55.71028],[37.56961,55.71162],[37.57761,55.71421],[37.58871,55.70714],[37.56146,55.69156],[37.54749,55.68083],[37.53013,55.68989],[37.53005,55.68993]]]},"properties":{"district":"Гагаринский","source_name":"Гагаринский"}},{"type":"Feature","geometry":{"type":"Polygon","coordinates":[[[37.53686,55.90706],[37.57415,55.91127],[37.5786,55.91143],[37.58735,55.91037],[37.59098,55.91362],[37.58727,55.90761],[37.58667,55.88695],[37.5674,55.8873],[37.56676,55.89084],[37.56406,55.89327],[37.54237,55.90137],[37.53761,55.90548],[37.53686,55.90706]]]},"properties":{"district":"Лианозово","source_name":"Лианозово"}},{"type":"Feature","geometry":{"type":"Polygon","coordinates":[[[37.54108,55.72013],[37.54186,55.72404],[37.5449,55.72706],[37.55303,55.72995],[37.56575,55.7364],[37.57413,55.74545],[37.57997,55.7458],[37.58305,55.74546],[37.58381,55.74371],[37.58746,55.74411],[37.58591,55.74631],[37.59591,55.74768],[37.59936,55.74708],[37.59972,55.74889],[37.60295,55.74859],[37.6043,55.75041],[37.61057,55.74867],[37.61229,55.7468],[37.60832,55.74312],[37.60674,55.73809],[37.60003,55.73459],[37.5903,55.72356],[37.58208,55.71674],[37.57761,55.71421],[37.5654,55.71076],[37.55687,55.71034],[37.54852,55.71226],[37.54333,55.71562],[37.54189,55.71759],[37.54108,55.72013]]]},"properties":{"district":"Хамовники","source_name":"Хамовники"}},{"type":"Feature","geometry":{"type":"Polygon","coordinates":[[[37.55226,55.68403],[37.56146,55.69156],[37.58731,55.70634],[37.59673,55.69557],[37.60162,55.69158],[37.59768,55.68985],[37.58614,55.67915],[37.57951,55.67691],[37.58031,55.67486],[37.57809,55.67269],[37.56299,55.67789],[37.5548,55.68254],[37.55226,55.68403]]]},"properties":{"district":"Академический","source_name":"Академический"}},{"type":"Feature","geometry":{"type":"Polygon","coordinates":[[[37.5698,55.60807],[37.57469,55.60882],[37.57568,55.61179],[37.57463,55.61323],[37.57809,55.61476],[37.57593,55.61551],[37.57942,55.61969],[37.5805,55.61939],[37.57889,55.62009],[37.57698,55.61931],[37.57499,55.61982],[37.57506,55.62054],[37.57692,55.62196],[37.58054,55.62179],[37.58263,55.62324],[37.58166,55.62292],[37.58139,55.62407],[37.58381,55.6254],[37.58584,55.62509],[37.58565,55.62398],[37.58708,55.62429],[37.58823,55.62351],[37.59152,55.62406],[37.61418,55.62067],[37.61488,55.62224],[37.62374,55.62105],[37.63082,55.62184],[37.63495,55.61495],[37.64076,55.61051],[37.63324,55.60427],[37.62318,55.60757],[37.60927,55.61013],[37.60594,55.60335],[37.59001,55.60496],[37.59025,55.60593],[37.58837,55.60607],[37.58438,55.60554],[37.58156,55.60437],[37.57782,55.60437],[37.57576,55.60626],[37.57399,55.60665],[37.57362,55.60595],[37.57187,55.60599],[37.56988,55.60772],[37.5698,55.60807]]]},"properties":{"district":"Чертаново Центральное","source_name":"Чертаново Центральное"}},{"type":"Feature","geometry":{"type":"Polygon","coordinates":[[[37.57137,55.87018],[37.57218,55.86953],[37.5853,55.87001],[37.58628,55.87481],[37.60858,55.87957],[37.6169,55.88033],[37.61673,55.87889],[37.61562,55.87825],[37.61618,55.87749],[37.61563,55.87721],[37.61668,55.87699],[37.61627,55.87507],[37.61978,55.87272],[37.62903,55.86883],[37.63052,55.86546],[37.63257,55.86473],[37.63511,55.86137],[37.63296,55.85942],[37.6329,55.85736],[37.63101,55.85699],[37.62591,55.85721],[37.62036,55.85926],[37.62009,55.8544],[37.61232,55.84648],[37.57745,55.84791],[37.57377,55.84848],[37.57309,55.85062],[37.57271,55.85473],[37.57468,55.86114],[37.57262,55.86711],[37.57137,55.87018]]]},"properties":{"district":"Отрадное","source_name":"Отрадное"}},{"type":"Feature","geometry":{"type":"Polygon","coordinates":[[[37.57294,55.58097],[37.57748,55.58635],[37.57679,55.58787],[37.57714,55.5917],[37.57897,55.59591],[37.58024,55.59581],[37.58057,55.59776],[37.57666,55.59787],[37.57671,55.59929],[37.57751,55.60003],[37.57736,55.59938],[37.57934,55.59969],[37.57824,55.59982],[37.57909,55.60082],[37.57767,55.60017],[37.58177,55.60349],[37.58171,55.60457],[37.58837,55.60607],[37.59025,55.60593],[37.59001,55.60496],[37.60594,55.60335],[37.60927,55.61013],[37.6226,55.60771],[37.63324,55.60427],[37.62816,55.59925],[37.61936,55.59476],[37.61574,55.59132],[37.61313,55.57463],[37.60554,55.57506],[37.60416,55.57442],[37.60368,55.57521],[37.60032,55.57537],[37.5978,55.57388],[37.59851,55.57219],[37.60056,55.57074],[37.60229,55.56637],[37.59747,55.56687],[37.5972,55.56908],[37.59224,55.5754],[37.59009,55.5769],[37.57814,55.57973],[37.57294,55.58097]]]},"properties":{"district":"Чертаново Южное","source_name":"Чертаново Южное"}},{"type":"Feature","geometry":{"type":"Polygon","coordinates":[[[37.57357,55.83132],[37.57444,55.8333],[37.57611,55.8348],[37.61337,55.81084],[37.6093,55.80905],[37.59535,55.80527],[37.59635,55.79864],[37.59207,55.7961],[37.58886,55.79242],[37.58774,55.79258],[37.58441,55.79484],[37.58234,55.80552],[37.58065,55.80829],[37.58473,55.80868],[37.57904,55.81219],[37.57782,55.81664],[37.57414,55.82196],[37.57358,55.83058],[37.57357,55.83132]]]},"properties":{"district":"Бутырский","source_name":"Бутырский"}},{"type":"Feature","geometry":{"type":"Polygon","coordinates":[[[37.57523,55.77552],[37.5811,55.77743],[37.58479,55.77987],[37.58858,55.792],[37.58774,55.79258],[37.59925,55.79248],[37.60171,55.78514],[37.60468,55.78529],[37.61491,55.78184],[37.61705,55.7803],[37.61894,55.77361],[37.621,55.77341],[37.62153,55.76697],[37.61986,55.7652],[37.62015,55.7617],[37.62155,55.75912],[37.62578,55.75975],[37.62667,55.76054],[37.62894,55.75984],[37.6279,55.75954],[37.635,55.7539],[37.63352,55.75323],[37.63211,55.74885],[37.62136,55.74882],[37.61229,55.7468],[37.61073,55.74859],[37.60839,55.74926],[37.61221,55.75459],[37.60704,55.75625],[37.60967,55.75829],[37.60564,55.76089],[37.60621,55.76127],[37.60371,55.76264],[37.60424,55.7632],[37.60062,55.76488],[37.59899,55.76429],[37.59522,55.76686],[37.59659,55.7676],[37.58334,55.7753],[37.57711,55.77316],[37.57622,55.77375],[37.57523,55.77552]]]},"properties":{"district":"Тверской","source_name":"Тверской"}},{"type":"Feature","geometry":{"type":"Polygon","coordinates":[[[37.58213,55.711],[37.58557,55.71107],[37.58834,55.7131],[37.58798,55.71394],[37.59267,55.71687],[37.59079,55.71781],[37.59271,55.71969],[37.59256,55.71915],[37.59408,55.71833],[37.60038,55.72135],[37.6094,55.71948],[37.61017,55.72143],[37.61504,55.72056],[37.61557,55.72009],[37.61371,55.7198],[37.61366,55.71663],[37.60834,55.71675],[37.60627,55.71115],[37.60646,55.70953],[37.60749,55.70748],[37.60825,55.70762],[37.61122,55.70433],[37.62099,55.70605],[37.62857,55.70526],[37.62814,55.69982],[37.62887,55.69175],[37.61259,55.6891],[37.60812,55.68933],[37.60374,55.69052],[37.60068,55.6922],[37.59625,55.69607],[37.58731,55.70634],[37.58871,55.70714],[37.5834,55.71004],[37.58213,55.711]]]},"properties":{"district":"Донской","source_name":"Донской"}},{"type":"Feature","geometry":{"type":"Polygon","coordinates":[[[37.60351,55.69035],[37.61259,55.6891],[37.62186,55.69073],[37.62394,55.68186],[37.62716,55.67261],[37.62291,55.66689],[37.6222,55.65183],[37.62447,55.64253],[37.61974,55.64219],[37.61977,55.64054],[37.60573,55.64133],[37.60547,55.65653],[37.61357,55.66348],[37.60765,55.66408],[37.60909,55.66512],[37.61064,55.66496],[37.61164,55.66613],[37.60628,55.66886],[37.60584,55.67285],[37.60912,55.67641],[37.61142,55.67732],[37.61148,55.67833],[37.61378,55.67999],[37.6147,55.6816],[37.61604,55.68191],[37.619,55.68432],[37.6152,55.68473],[37.60902,55.68387],[37.60675,55.68436],[37.60502,55.6858],[37.60524,55.68881],[37.60401,55.69007],[37.60351,55.69035]]]},"properties":{"district":"Нагорный","source_name":"Нагорный"}},{"type":"Feature","geometry":{"type":"Polygon","coordinates":[[[37.62504,55.85709],[37.6329,55.85736],[37.63287,55.85918],[37.63385,55.86061],[37.64016,55.86502],[37.64173,55.86532],[37.64213,55.86439],[37.64481,55.86334],[37.64685,55.86097],[37.65294,55.8576],[37.66189,55.85695],[37.67194,55.85043],[37.67145,55.84681],[37.66347,55.8408],[37.64826,55.84495],[37.62672,55.84602],[37.62586,55.85538],[37.6251,55.85685],[37.62504,55.85709]]]},"properties":{"district":"Свиблово","source_name":"Свиблово"}},{"type":"Feature","geometry":{"type":"Polygon","coordinates":[[[37.61513,55.72688],[37.61991,55.7273],[37.61961,55.72924],[37.6232,55.72946],[37.62395,55.73009],[37.625,55.74197],[37.62455,55.74543],[37.62635,55.746],[37.62506,55.74908],[37.63114,55.74903],[37.63927,55.74658],[37.64487,55.74113],[37.65049,55.73128],[37.65421,55.72882],[37.65223,55.72804],[37.64602,55.7295],[37.64491,55.72801],[37.64377,55.72243],[37.64173,55.72216],[37.63646,55.72353],[37.63584,55.72202],[37.63307,55.72259],[37.61777,55.72028],[37.61582,55.72532],[37.61513,55.72688]]]},"properties":{"district":"Замоскворечье","source_name":"Замоскворечье"}},{"type":"Feature","geometry":{"type":"Polygon","coordinates":[[[37.61965,55.88561],[37.62317,55.88778],[37.62318,55.88898],[37.64437,55.89768],[37.66892,55.89564],[37.67261,55.89781],[37.67684,55.89531],[37.68525,55.89508],[37.68498,55.89176],[37.6819,55.88797],[37.68119,55.88574],[37.6776,55.88317],[37.67396,55.8838],[37.67293,55.88344],[37.67373,55.88287],[37.67194,55.88214],[37.66507,55.88236],[37.6593,55.88102],[37.65737,55.87959],[37.65733,55.87661],[37.63635,55.87841],[37.64173,55.88413],[37.62392,55.88532],[37.61965,55.88561]]]},"properties":{"district":"Северное Медведково","source_name":"Северное Медведково"}},{"type":"Feature","geometry":{"type":"Polygon","coordinates":[[[37.62186,55.69073],[37.62887,55.69175],[37.63157,55.68667],[37.63612,55.68461],[37.64393,55.68449],[37.66524,55.68613],[37.66187,55.66935],[37.65431,55.6597],[37.65343,55.65601],[37.65459,55.65342],[37.65907,55.65076],[37.6418,55.65833],[37.63706,55.65495],[37.63426,55.65653],[37.63204,55.65586],[37.62258,55.65756],[37.62291,55.66689],[37.62716,55.67261],[37.62342,55.68391],[37.62186,55.69073]]]},"properties":{"district":"Нагатино-Садовники","source_name":"Нагатино-Садовники"}},{"type":"Feature","geometry":{"type":"Polygon","coordinates":[[[37.6279,55.75954],[37.63157,55.76051],[37.63715,55.76508],[37.6447,55.76851],[37.66304,55.76974],[37.66444,55.77334],[37.6759,55.77835],[37.68011,55.77712],[37.68484,55.78081],[37.68482,55.7816],[37.7019,55.78177],[37.70774,55.78016],[37.71043,55.77845],[37.71352,55.77526],[37.70252,55.77003],[37.69749,55.76684],[37.69219,55.76948],[37.68844,55.76713],[37.68585,55.76398],[37.68601,55.7622],[37.68416,55.76027],[37.68095,55.75914],[37.67302,55.75933],[37.67133,55.75868],[37.67076,55.75792],[37.67302,55.75317],[37.67053,55.75075],[37.66623,55.75314],[37.66421,55.75268],[37.66293,55.7541],[37.65828,55.75473],[37.65519,55.75456],[37.65006,55.75302],[37.64351,55.7527],[37.63898,55.75317],[37.63702,55.75423],[37.63518,55.75385],[37.62797,55.75948],[37.6279,55.75954]]]},"properties":{"district":"Басманный","source_name":"Басманный"}},{"type":"Feature","geometry":{"type":"Polygon","coordinates":[[[37.65031,55.79292],[37.6513,55.79594],[37.6514,55.80011],[37.66858,55.82045],[37.67046,55.82442],[37.67663,55.81944],[37.68544,55.81686],[37.68745,55.81709],[37.692,55.8132],[37.69529,55.81212],[37.69504,55.81086],[37.70005,55.80994],[37.70186,55.80587],[37.69946,55.80275],[37.69857,55.80028],[37.70549,55.79299],[37.70489,55.79191],[37.69913,55.78837],[37.69871,55.78675],[37.69939,55.78197],[37.68882,55.78191],[37.66252,55.78701],[37.65152,55.78937],[37.65045,55.79164],[37.65031,55.79292]]]},"properties":{"district":"Сокольники","source_name":"Сокольники"}},{"type":"Feature","geometry":{"type":"Polygon","coordinates":[[[37.64076,55.61051],[37.64443,55.61197],[37.664,55.61636],[37.66792,55.61774],[37.67144,55.62002],[37.67293,55.61963],[37.67564,55.62183],[37.67985,55.62171],[37.67809,55.61752],[37.67791,55.61433],[37.68062,55.60998],[37.68646,55.60785],[37.69264,55.60685],[37.6926,55.6045],[37.69636,55.60244],[37.70011,55.6024],[37.70281,55.59929],[37.70519,55.59844],[37.70946,55.59834],[37.71492,55.59672],[37.71704,55.59572],[37.7245,55.58931],[37.69256,55.57712],[37.69138,55.57478],[37.69175,55.57282],[37.69092,55.57232],[37.68916,55.57348],[37.68518,55.57412],[37.67605,55.57209],[37.66436,55.57162],[37.66078,55.57726],[37.65957,55.58343],[37.64984,55.60004],[37.64109,55.61031],[37.64076,55.61051]]]},"properties":{"district":"Бирюлево Восточное","source_name":"Бирюлёво Восточное"}},{"type":"Feature","geometry":{"type":"Polygon","coordinates":[[[37.64172,55.86531],[37.64516,55.86548],[37.64883,55.86667],[37.64847,55.86777],[37.6516,55.87032],[37.65809,55.87268],[37.65868,55.87359],[37.65743,55.87502],[37.65732,55.87947],[37.65965,55.88113],[37.66507,55.88236],[37.67141,55.88205],[37.67373,55.88287],[37.67303,55.88356],[37.67511,55.88369],[37.6784,55.88109],[37.68066,55.87688],[37.67605,55.87076],[37.67532,55.86797],[37.68354,55.86437],[37.68157,55.86306],[37.68111,55.86191],[37.68183,55.86156],[37.67385,55.85568],[37.67252,55.85351],[37.67194,55.85043],[37.66189,55.85695],[37.65294,55.8576],[37.64685,55.86097],[37.64481,55.86334],[37.64259,55.86411],[37.64178,55.86513],[37.64172,55.86531]]]},"properties":{"district":"Бабушкинский","source_name":"Бабушкинский"}},{"type":"Feature","geometry":{"type":"Polygon","coordinates":[[[37.66347,55.8408],[37.67145,55.84681],[37.67311,55.85465],[37.6794,55.85999],[37.71971,55.88591],[37.72436,55.8838],[37.72752,55.88395],[37.73156,55.88562],[37.7321,55.88532],[37.72923,55.88204],[37.7297,55.88106],[37.73426,55.87864],[37.7312,55.87677],[37.73182,55.87495],[37.72426,55.87301],[37.72244,55.87363],[37.7077,55.86552],[37.70661,55.86429],[37.70886,55.8632],[37.70932,55.86101],[37.70504,55.861],[37.70266,55.86256],[37.70056,55.86112],[37.71792,55.86063],[37.72164,55.85292],[37.71941,55.85142],[37.7201,55.85057],[37.71938,55.85004],[37.71408,55.84691],[37.70552,55.84786],[37.70359,55.84877],[37.69682,55.84816],[37.69451,55.84951],[37.69396,55.85181],[37.69468,55.8534],[37.69243,55.85533],[37.69313,55.8558],[37.68871,55.85612],[37.68686,55.85452],[37.69239,55.85295],[37.68997,55.85122],[37.69223,55.85031],[37.69114,55.84854],[37.67844,55.84182],[37.67829,55.84034],[37.6769,55.83909],[37.67209,55.83841],[37.66387,55.84067],[37.66347,55.8408]]]},"properties":{"district":"Ярославский","source_name":"Ярославский"}},{"type":"Feature","geometry":{"type":"Polygon","coordinates":[[[37.67021,55.83874],[37.68998,55.83353],[37.73316,55.81883],[37.74281,55.81412],[37.74593,55.81036],[37.74601,55.80903],[37.74495,55.80897],[37.73181,55.80879],[37.72985,55.80982],[37.724,55.8065],[37.71213,55.80443],[37.70875,55.80289],[37.70768,55.80366],[37.6988,55.80134],[37.70186,55.80587],[37.70005,55.80994],[37.69504,55.81086],[37.69529,55.81212],[37.692,55.8132],[37.68745,55.81709],[37.68544,55.81686],[37.67663,55.81944],[37.67046,55.82442],[37.67154,55.82902],[37.67038,55.83768],[37.67021,55.83874]]]},"properties":{"district":"Богородское","source_name":"Богородское"}},{"type":"Feature","geometry":{"type":"Polygon","coordinates":[[[37.69291,55.64383],[37.71313,55.65852],[37.71552,55.65824],[37.72025,55.66033],[37.72728,55.65649],[37.73755,55.66018],[37.75107,55.66622],[37.76395,55.66887],[37.76793,55.6677],[37.77591,55.66693],[37.78233,55.66355],[37.788,55.65846],[37.78345,55.64855],[37.7798,55.64874],[37.74538,55.6399],[37.7295,55.64089],[37.71328,55.63946],[37.69448,55.64328],[37.69291,55.64383]]]},"properties":{"district":"Марьино","source_name":"Марьино"}},{"type":"Feature","geometry":{"type":"Polygon","coordinates":[[[37.69932,55.78271],[37.70079,55.78272],[37.70084,55.78386],[37.70202,55.78458],[37.70636,55.78304],[37.7069,55.7845],[37.71231,55.78501],[37.7126,55.78594],[37.71359,55.78605],[37.7142,55.7852],[37.71769,55.78552],[37.71691,55.78792],[37.72044,55.787],[37.7256,55.78787],[37.73467,55.79385],[37.74452,55.79349],[37.743,55.7878],[37.74376,55.77848],[37.74541,55.77006],[37.74804,55.77005],[37.74857,55.76594],[37.75093,55.76452],[37.75422,55.75875],[37.71961,55.75198],[37.71813,55.75388],[37.71766,55.75596],[37.72063,55.76246],[37.72039,55.76673],[37.71361,55.7753],[37.70992,55.77887],[37.70525,55.78099],[37.69939,55.78197],[37.69932,55.78271]]]},"properties":{"district":"Соколиная Гора","source_name":"Соколиная Гора"}},{"type":"Feature","geometry":{"type":"Polygon","coordinates":[[[37.71313,55.65852],[37.72211,55.66513],[37.7266,55.6713],[37.73489,55.68743],[37.73445,55.68996],[37.73302,55.69193],[37.73884,55.69173],[37.7418,55.69011],[37.74603,55.69047],[37.75425,55.68896],[37.75575,55.69075],[37.75912,55.69021],[37.76085,55.69103],[37.76119,55.68874],[37.76263,55.68813],[37.76417,55.68844],[37.76704,55.68725],[37.78503,55.68341],[37.78888,55.6813],[37.7925,55.68312],[37.79833,55.68019],[37.80532,55.68028],[37.80449,55.67742],[37.80793,55.67464],[37.80982,55.67578],[37.81196,55.67456],[37.81441,55.67587],[37.81218,55.67713],[37.81809,55.68037],[37.822,55.67829],[37.82502,55.67951],[37.83038,55.67728],[37.83453,55.67789],[37.8396,55.66401],[37.84013,55.65827],[37.84163,55.65785],[37.84139,55.6567],[37.78945,55.6581],[37.788,55.65846],[37.78233,55.66355],[37.77651,55.66668],[37.76793,55.6677],[37.76395,55.66887],[37.75045,55.66604],[37.73755,55.66018],[37.72728,55.65649],[37.72025,55.66033],[37.71423,55.65819],[37.71313,55.65852]]]},"properties":{"district":"Люблино","source_name":"Люблино"}},{"type":"Feature","geometry":{"type":"Polygon","coordinates":[[[37.71724,55.72172],[37.73598,55.72501],[37.73978,55.7241],[37.74238,55.72167],[37.749,55.7103],[37.74761,55.70994],[37.74783,55.70786],[37.74522,55.70806],[37.75604,55.69167],[37.75425,55.68896],[37.74603,55.69047],[37.7418,55.69011],[37.73884,55.69173],[37.73302,55.69193],[37.73162,55.69398],[37.73049,55.69884],[37.7289,55.71124],[37.72639,55.71419],[37.7181,55.72101],[37.71724,55.72172]]]},"properties":{"district":"Текстильщики","source_name":"Текстильщики"}},{"type":"Feature","geometry":{"type":"Polygon","coordinates":[[[37.743,55.7878],[37.74622,55.79851],[37.7462,55.80134],[37.75181,55.80223],[37.80512,55.80287],[37.80523,55.80167],[37.80561,55.79331],[37.79947,55.79324],[37.80132,55.76795],[37.79188,55.76611],[37.77867,55.76611],[37.76917,55.7632],[37.76894,55.76397],[37.76405,55.76218],[37.75448,55.76031],[37.7537,55.75961],[37.75093,55.76452],[37.74857,55.76594],[37.74804,55.77005],[37.74541,55.77006],[37.74376,55.77848],[37.74306,55.7871],[37.743,55.7878]]]},"properties":{"district":"Измайлово","source_name":"Измайлово"}},{"type":"Feature","geometry":{"type":"Polygon","coordinates":[[[37.74522,55.70806],[37.74783,55.70786],[37.74761,55.70994],[37.7744,55.71684],[37.78059,55.70929],[37.79454,55.70737],[37.78948,55.69043],[37.78726,55.69047],[37.78774,55.68861],[37.79112,55.68711],[37.79858,55.68898],[37.8055,55.68796],[37.80253,55.68049],[37.79833,55.68019],[37.7925,55.68312],[37.78888,55.6813],[37.78503,55.68341],[37.76704,55.68725],[37.76417,55.68844],[37.76263,55.68813],[37.76119,55.68874],[37.76085,55.69103],[37.75912,55.69021],[37.75575,55.69075],[37.75604,55.69167],[37.74544,55.70766],[37.74522,55.70806]]]},"properties":{"district":"Кузьминки","source_name":"Кузьминки"}},{"type":"Feature","geometry":{"type":"Polygon","coordinates":[[[37.74601,55.80903],[37.74739,55.81068],[37.76706,55.81828],[37.78489,55.82192],[37.78469,55.82439],[37.78142,55.82476],[37.77741,55.85644],[37.82739,55.8306],[37.82974,55.83056],[37.83008,55.82915],[37.83439,55.82596],[37.83737,55.82249],[37.83917,55.81626],[37.84355,55.81497],[37.81176,55.81065],[37.78057,55.80962],[37.7462,55.80134],[37.74606,55.80519],[37.74601,55.80903]]]},"properties":{"district":"Гольяново","source_name":"Гольяново"}}]}